NUSAT-1 (FRESCO)        
1 41557U 16033B   22127.22384770  .00013459  00000+0  41568-3 0  9990
2 41557  97.3856 224.8892 0012338 159.6379 284.1775 15.33588536331068
BEESAT-4                
1 41619U 16040W   22127.12290366  .00025960  00000+0  89627-3 0  9991
2 41619  97.2206 178.8821 0008104 257.9212 102.1121 15.29901894314403
CAS-2T & KS-1Q          
1 41847U 16066G   22126.61026858  .00000738  00000+0  12143-3 0  9993
2 41847  98.5535 191.3158 0363544 335.2146  23.1947 14.38530849288333
NAYIF-1 (EO-88)         
1 42017U 17008BX  22127.14195351  .00030363  00000+0  94486-3 0  9991
2 42017  97.2711 193.8891 0005664  52.0009 308.1745 15.33234048290742
ZHUHAI-1 02 (CAS-4B)    
1 42759U 17034B   22127.20901103  .00004581  00000+0  27780-3 0  9996
2 42759  43.0175 199.9845 0008422  19.7194  31.2070 15.11592503270117
ZHUHAI-1 01 (CAS-4A)    
1 42761U 17034D   22127.24874295  .00004726  00000+0  28540-3 0  9990
2 42761  43.0174 198.5839 0009107  21.9138  36.9115 15.11686230270125
MAX VALIER SAT          
1 42778U 17036P   22127.09545966  .00014833  00000+0  57345-3 0  9998
2 42778  97.2096 169.6284 0013140 111.7029 248.5610 15.26240245270599
RADFXSAT (FOX-1B)       
1 43017U 17073E   22126.28731789  .00007319  00000+0  55467-3 0  9990
2 43017  97.6789  22.1977 0248815 326.2501  32.3080 14.81113650240875
FOX-1D (AO-92)          
1 43137U 18004AC  22127.19244950  .00013379  00000+0  48389-3 0  9996
2 43137  97.3694 202.7423 0009124 142.2346 217.9535 15.28517292240039
DIWATA-2B               
1 43678U 18084H   22127.14100586  .00001514  00000+0  15464-3 0  9991
2 43678  97.9636 259.9400 0011181  65.3071 294.9290 14.92094519191698
ES'HAIL 2               
1 43700U 18090A   22127.10743931  .00000149  00000+0  00000+0 0  9996
2 43700   0.0413  96.7558 0002086 332.5128 220.1520  1.00269859 12852
FOX-1CLIFF (AO-95)      
1 43770U 18099N   22126.46118334  .00004414  00000+0  39551-3 0  9999
2 43770  97.6223 193.9020 0015446  61.2712 299.0059 14.96205922186734
ITASAT 1                
1 43786U 18099AE  22127.19454104  .00003012  00000+0  27027-3 0  9993
2 43786  97.6247 195.5114 0015866  51.8783 308.3866 14.96385167186884
JY1SAT (JO-97)          
1 43803U 18099AX  22126.22251585  .00004081  00000+0  36020-3 0  9994
2 43803  97.6219 194.3099 0016034  53.6445 306.6254 14.96831534186757
UWE-4                   
1 43880U 18111E   22127.18768628  .00002941  00000+0  25436-3 0  9993
2 43880  97.6702  34.2211 0013231  97.2788 262.9938 14.97887173181521
NEXUS (FO-99)           
1 43937U 19003F   22126.84012923  .00020817  00000+0  72229-3 0  9993
2 43937  97.1346 161.8316 0019061 304.6264  55.3179 15.29638748183618
PSAT2 (NO-104)          
1 44354U 19036R   22127.03822788  .00077310 -51090-5  76332-3 0  9994
2 44354  28.5270 104.2769 0249610 225.7923 132.1921 15.34132377158297
JAISAT-1                
1 44419U 19038F   22126.68324308  .00013270  00000+0  67900-3 0  9997
2 44419  97.6336  96.5003 0017325 277.0168  82.9094 15.16629245156724
DUCHIFAT-3              
1 44854U 19089C   22126.99495800  .00004126  00000+0  32487-3 0  9998
2 44854  36.9680 346.0752 0008898 254.3164 105.6599 15.00763455131707
CAS-6 (TO-108)          
1 44881U 19093C   22127.24951278  .00000708  00000+0  96487-4 0  9991
2 44881  97.8928 207.0494 0014196 325.0132  35.0152 14.81673435128675
RS-44 & BREEZE-KM R/B   
1 44909U 19096E   22126.44228265  .00000004  00000+0 -33182-4 0  9992
2 44909  82.5203 258.1815 0218168  58.1507 304.0627 12.79713158110132
ORBITAL FACTORY 2 (OF-2)
1 45113U 19071C   22126.43777200  .00036191  00000+0  80414-3 0  9994
2 45113  51.6396 265.7787 0009766  15.4327 344.6955 15.43284702126885
HUSKYSAT-1 (HO-107)     
1 45119U 19071J   22126.68089877  .00039372  00000+0  89336-3 0  9999
2 45119  51.6387 264.3812 0009544  13.3834 346.7403 15.42621026126917
BY70-2                  
1 45857U 20042B   22127.23932872  .00007854  00000+0  10636-2 0  9998
2 45857  97.9551 204.4922 0009631 243.2743 116.7416 14.79197188 99362
SALSAT                  
1 46495U 20068K   22126.39327588  .00004328  00000+0  31426-3 0  9997
2 46495  97.7259  67.6945 0017838  62.1769 298.1262 15.04290377 87861
BY70-3                  
1 46839U 20079N   22127.14419074  .00021077  00000+0  52696-3 0  9999
2 46839  97.1997 199.8282 0007405 123.1084 321.5680 15.40122001 83886
RADFXSAT-2 (AO-109)     
1 47311U 21002C   22127.22705722  .00009944  00000+0  41062-3 0  9993
2 47311  60.6842 157.3585 0011184 282.2742  77.7094 15.24554036 72187
UVSQ-SAT                
1 47438U 21006AB  22126.41756242  .00010715  00000+0  57320-3 0  9992
2 47438  97.4400 186.2985 0013422  66.2961 293.9679 15.15156666 70917
DIY-1 (ARDUIQUBE)       
1 47963U 21022AH  22126.54396723  .00024435  00000+0  14151-2 0  9999
2 47963  97.5349  28.4241 0015064 278.6332  81.3192 15.12111967 60617
XW-3 (CAS-9)            
1 50466U 21131B   22127.20285315  .00000208  00000+0  82826-4 0  9998
2 50466  98.5809 204.4749 0003273 267.4993  92.5819 14.38479266 18987
